
ONEWEB-0262             
1 48980U 21060P   24343.95764509 -.00000263  00000+0 -72257-3 0  9997
2 48980  87.9081 339.3871 0001453  93.6136 266.5161 13.16594559166568
ONEWEB-0263             
1 48981U 21060Q   24343.76132364  .00000207  00000+0  50666-3 0  9991
2 48981  87.9087 339.4480 0001437  77.8947 282.2344 13.16593966166501
ONEWEB-0264             
1 48982U 21060R   24344.02651893  .00000044  00000+0  81263-4 0  9992
2 48982  87.9083 339.4049 0001773  86.4790 273.6544 13.16593106167833
ONEWEB-0266             
1 48984U 21060T   24343.89589646  .00000151  00000+0  36258-3 0  9996
2 48984  87.9081 339.4042 0001735  93.0666 267.0664 13.16592514166516
ONEWEB-0267             
1 48985U 21060U   24343.75499823  .00000212  00000+0  52106-3 0  9997
2 48985  87.9082 339.4341 0001633  78.6315 281.4999 13.16594829166508
ONEWEB-0268             
1 48986U 21060V   24343.95130867 -.00000006  00000+0 -48475-4 0  9998
2 48986  87.9082 339.4015 0001876  84.4539 275.6805 13.16594411166798
ONEWEB-0269             
1 48987U 21060W   24343.93231245  .00000147  00000+0  35019-3 0  9992
2 48987  87.9086 339.4361 0001891  89.2160 270.9188 13.16593480166569
ONEWEB-0270             
1 48988U 21060X   24343.94972918  .00000069  00000+0  14789-3 0  9997
2 48988  87.9078 339.4079 0001405  77.8214 282.3074 13.16593024166601
ONEWEB-0271             
1 48989U 21060Y   24344.08904457 -.00000002  00000+0 -39000-4 0  9990
2 48989  87.9083 339.3589 0001588  78.5350 281.5959 13.16592230167910
ONEWEB-0272             
1 48990U 21060Z   24343.95922916  .00000119  00000+0  27712-3 0  9990
2 48990  87.9082 339.4154 0001691  81.7767 278.3556 13.16592978166558
ONEWEB-0273             
1 48991U 21060AA  24343.90539915  .00000127  00000+0  29780-3 0  9995
2 48991  87.9081 339.4120 0001569  86.9579 273.1731 13.16592682166520
ONEWEB-0274             
1 48992U 21060AB  24343.93074074  .00000124  00000+0  29115-3 0  9998
2 48992  87.9091 339.4323 0002092  77.2145 282.9220 13.16594612166561
ONEWEB-0275             
1 48993U 21060AC  24343.69165942  .00000173  00000+0  41987-3 0  9992
2 48993  87.9083 339.4493 0001707  83.1522 276.9803 13.16593730166467
ONEWEB-0276             
1 48994U 21060AD  24343.95289603  .00000092  00000+0  20824-3 0  9990
2 48994  87.9083 339.3936 0001560  84.1992 275.9317 13.16593293166517
ONEWEB-0277             
1 48995U 21060AE  24343.96556171  .00000164  00000+0  39484-3 0  9991
2 48995  87.9081 339.4287 0001528  73.7304 286.3995 13.16593157166507
ONEWEB-0278             
1 48996U 21060AF  24344.03205931  .00000031  00000+0  46302-4 0  9997
2 48996  87.9082 339.3747 0001690  96.4458 263.6865 13.16592826167957
ONEWEB-0279             
1 48997U 21060AG  24343.96397582  .00000163  00000+0  39166-3 0  9998
2 48997  87.9081 339.3852 0001675  75.4303 284.7014 13.16592484166569
ONEWEB-0280             
1 48998U 21060AH  24343.52304479  .00000121  00000+0  28185-3 0  9997
2 48998  87.9083 339.4770 0001390  86.6893 273.4397 13.16592527166448
ONEWEB-0281             
1 48999U 21060AJ  24343.75658102  .00000081  00000+0  17933-3 0  9992
2 48999  87.9081 339.4303 0001916  85.9958 274.1392 13.16594503166547
ONEWEB-0282             
1 49000U 21060AK  24344.01464345  .00000113  00000+0  26198-3 0  9999
2 49000  87.9081 339.3953 0001537  84.2705 275.8601 13.16593527167875
ONEWEB-0283             
1 49001U 21060AL  24343.69957560  .00000156  00000+0  37438-3 0  9995
2 49001  87.9081 339.4631 0001774  79.8343 280.2988 13.16593487166525
ONEWEB-0284             
1 49002U 21060AM  24344.07321736  .00000116  00000+0  26968-3 0  9991
2 49002  87.9073 339.3620 0001682  94.2156 265.9167 13.16592732167864
JILIN-1 KUANFU-01B      
1 49003U 21061A   24344.16874686  .00010591  00000+0  54947-3 0  9996
2 49003  97.5769  57.2114 0021605 240.5851 119.3225 15.16124815189566
JILIN-1 GAOFEN 3D01     
1 49004U 21061B   24344.18866903  .00054602  00000+0  11918-2 0  9993
2 49004  97.3748  49.4475 0005115 194.8456 165.2643 15.44022075190477
JILIN-1 GAOFEN 3D02     
1 49005U 21061C   24344.17049099  .00031974  00000+0  10371-2 0  9991
2 49005  97.3729  44.0736 0003483 337.1186  22.9900 15.31906022190122
JILIN-1 GAOFEN 3D03     
1 49006U 21061D   24344.11729899  .00030862  00000+0  10510-2 0  9999
2 49006  97.3727  43.6684 0007282 305.4662  54.5899 15.30319986190096
XINGSHIDAI 10           
1 49007U 21061E   24344.13889279  .00030103  00000+0  10183-2 0  9995
2 49007  97.3724  43.7148 0007790 284.8632  75.1746 15.30539261190091
FENGYUN 3E              
1 49008U 21062A   24344.11990174  .00000130  00000+0  81859-4 0  9999
2 49008  98.7384 343.1144 0000671 216.7341 143.3789 14.19821843177810
TIANLIAN 1-05           
1 49011U 21063A   24343.11090914  .00000124  00000+0  00000+0 0  9993
2 49011   0.1656  67.5878 0005103 188.2094 238.2977  1.00272295 12501
NINGXIA-1 6             
1 49018U 21064A   24344.16025784  .00000091  00000+0  12906-3 0  9995
2 49018  44.9993 214.2972 0007416  92.6759 267.4926 14.08379917175980
NINGXIA-1 7             
1 49019U 21064B   24344.14744497  .00000064  00000+0  11354-3 0  9999
2 49019  45.0020 214.4857 0006457 101.4615 258.6947 14.08364809175992
NINGXIA-1 8             
1 49020U 21064C   24344.13218389  .00000115  00000+0  14324-3 0  9993
2 49020  44.9938 213.5927 0007237 107.7791 252.3835 14.08366355175994
NINGXIA-1 9             
1 49021U 21064D   24344.11748716  .00000109  00000+0  13956-3 0  9997
2 49021  45.0017 214.2760 0007640 117.8010 242.3601 14.08385660175992
NINGXIA-1 10            
1 49022U 21064E   24344.10289281  .00000117  00000+0  14431-3 0  9992
2 49022  44.9989 213.9140 0007596 124.4172 235.7384 14.08370850175999
YAOGAN-30 11A           
1 49026U 21065A   24344.18434368  .00007047  00000+0  58836-3 0  9999
2 49026  34.9946  45.0594 0004421 348.0077  12.0524 14.97905580185225
TIANQI-15               
1 49027U 21065B   24343.83640744  .00010810  00000+0  79986-3 0  9999
2 49027  35.0019  22.3994 0008397 193.9019 166.1459 15.02421034185457
YAOGAN-30 11B           
1 49028U 21065C   24344.16124535  .00007327  00000+0  61203-3 0  9994
2 49028  34.9947  44.8820 0001094 211.0564 149.0078 14.97885718185203
YAOGAN-30 11C           
1 49029U 21065D   24344.13956789  .00007058  00000+0  58958-3 0  9990
2 49029  34.9959  44.8139 0004296 112.4273 247.6889 14.97888612185232
ISS (NAUKA)             
1 49044U 21066A   24343.86747247  .00020292  00000+0  35759-3 0  9993
2 49044  51.6375 169.9650 0007185 317.3594  42.6836 15.50376027191375
TIANHUI 1-04            
1 49049U 21067A   24344.17490346  .00013455  00000+0  56753-3 0  9999
2 49049  97.3448  55.5974 0000929  25.7304 334.3979 15.23420022187093
MONOLITH                
1 49052U 21068A   24343.68057881  .00013262  00000+0  10449-2 0  9999
2 49052  37.0222 335.4212 0003697 304.9249  55.1146 15.00211908183544
STAR ONE D2             
1 49055U 21069A   24343.57821267 -.00000248  00000+0  00000+0 0  9998
2 49055   0.0149 346.1731 0002289 245.1887 344.5270  1.00269829 12364
EUTELSAT QUANTUM        
1 49056U 21069B   24343.90622042  .00000142  00000+0  00000+0 0  9998
2 49056   0.0184  23.5422 0002532 234.0726 194.4757  1.00271567 12361
KL-BETA A               
1 49059U 21070A   24344.11898680  .00000309  00000+0  22309-3 0  9995
2 49059  88.9848 279.4179 0001719  59.2159 300.9186 13.94110370170589
KL-BETA B               
1 49060U 21070B   24344.12481882  .00000317  00000+0  22725-3 0  9991
2 49060  88.9848 279.3691 0007109  60.3924 299.7959 13.94569482170609
ZHONGXING-2E            
1 49062U 21071A   24343.72477819 -.00000275  00000+0  00000+0 0  9996
2 49062   0.0423 256.8655 0002090   9.8372 170.2134  1.00268850 12460
BRO-4                   
1 49066U 21073A   24344.18932844  .00165117  00000+0  18108-2 0  9994
2 49066  97.4300  63.9905 0009277 333.2054  26.8724 15.62650400183759
LEDSAT                  
1 49069U 21073D   24344.17664491  .00044974  00000+0  12008-2 0  9996
2 49069  97.4161  55.3261 0014888  24.0947 336.0991 15.37862521183211
PLEIADES NEO 4          
1 49070U 21073E   24344.17001823  .00003871  00000+0  49827-3 0  9993
2 49070  97.8935  55.8965 0000969  99.7130 260.4192 14.81668510179184
TIANHUI 2-02A           
1 49071U 21074A   24343.51092969  .00004489  00000+0  23217-3 0  9994
2 49071  97.4722 343.4120 0001637 112.3669 247.7738 15.16751670183050
TIANHUI 2-02B           
1 49072U 21074B   24343.51093040  .00004525  00000+0  23405-3 0  9996
2 49072  97.4722 343.4080 0001781  94.7507 265.3929 15.16751689183047
ONEWEB-0285             
1 49075U 21075A   24343.82502963 -.00000441  00000+0 -12616-2 0  9999
2 49075  87.8877 101.2516 0001526 104.7741 255.3557 13.12444099162363
ONEWEB-0286             
1 49076U 21075B   24344.02521063  .00000392  00000+0  10541-2 0  9993
2 49076  87.8876 101.2093 0001774 106.8430 253.2893 13.12441666162723
ONEWEB-0287             
1 49077U 21075C   24343.92137968  .00000126  00000+0  29088-3 0  9991
2 49077  87.9092 116.4801 0001563 108.0685 252.0617 13.17651145160507
ONEWEB-0288             
1 49078U 21075D   24343.85895511  .00000516  00000+0  13986-2 0  9991
2 49078  87.8875 101.2453 0001559 108.8694 251.2604 13.12441943162343
ONEWEB-0289             
1 49079U 21075E   24343.41850134  .00000129  00000+0  29991-3 0  9990
2 49079  87.9091 116.6096 0001511  97.7901 262.3402 13.17646879161015
ONEWEB-0290             
1 49080U 21075F   24344.08505356  .00000076  00000+0  16263-3 0  9998
2 49080  87.9095 116.4360 0000866 111.8901 248.2323 13.17650044161499
ONEWEB-0291             
1 49081U 21075G   24343.91799948  .00000162  00000+0  38435-3 0  9993
2 49081  87.9086 116.4817 0001524 112.0504 248.0790 13.17649733160488
